{"_default": { "161": {"norad_id": "46495", "name": "SALSAT", "tle1": "1 46495U 20068K   26199.01462697  .00004061  00000-0  14177-3 0  9990", "tle2": "2 46495  97.8861 203.9671 0009496 182.8082 177.3106 15.30195257320079", "object_type": "PAYLOAD", "criticality_score": 9.0, "last_updated": "2026-07-18T17:04:38.830881+00:00", "maneuver_count": 0, "owner": "N/A"}, "162": {"norad_id": "46506", "name": "NETSAT-1", "tle1": "1 46506U 20068W   26198.96978133  .00006870  00000-0  20314-3 0  9993", "tle2": "2 46506  97.8757 201.8469 0002601 246.1321 113.9649 15.35283657320029", "object_type": "PAYLOAD", "criticality_score": 9.0, "last_updated": "2026-07-18T17:04:38.830881+00:00", "maneuver_count": 0, "owner": "N/A"}, "163": {"norad_id": "46507", "name": "NETSAT-2", "tle1": "1 46507U 20068X   26199.28431576  .00013062  00000-0  25840-3 0  9995", "tle2": "2 46507  97.8616 210.0628 0002603 195.5474 164.5695 15.47248392320541", "object_type": "PAYLOAD", "criticality_score": 9.0, "last_updated": "2026-07-18T17:04:38.830881+00:00", "maneuver_count": 0, "owner": "N/A"}, "164": {"norad_id": "46505", "name": "NETSAT-3", "tle1": "1 46505U 20068V   26198.99583850  .00010310  00000-0  23083-3 0  9993", "tle2": "2 46505  97.8658 207.9146 0004188 199.0804 161.0287 15.43668165320438", "object_type": "PAYLOAD", "criticality_score": 9.0, "last_updated": "2026-07-18T17:04:38.830881+00:00", "maneuver_count": 0, "owner": "N/A"}, "165": {"norad_id": "46504", "name": "NETSAT-4", "tle1": "1 46504U 20068U   26199.03116629  .00010198  00000-0  21966-3 0  9996", "tle2": "2 46504  97.8605 209.7738 0005097 183.3360 176.7854 15.44816439320533", "object_type": "PAYLOAD", "criticality_score": 9.0, "last_updated": "2026-07-18T17:04:38.830881+00:00", "maneuver_count": 0, "owner": "N/A"}, "167": {"norad_id": "46494", "name": "NORBI", "tle1": "1 46494U 20068J   26199.29182765  .00014178  00000-0  25700-3 0  9998", "tle2": "2 46494  97.8614 218.0285 0008508 134.3883 225.8065 15.49709974321022", "object_type": "PAYLOAD", "criticality_score": 9.0, "last_updated": "2026-07-18T17:04:38.830881+00:00", "maneuver_count": 0, "owner": "N/A"}, "203": {"norad_id": "47448", "name": "CUBEL", "tle1": "1 47448U 21006AM  26199.12178651  .00010682  00000-0  25169-3 0  9997", "tle2": "2 47448  97.2307 249.4300 0007757  74.3208 285.8895 15.42072228304521", "object_type": "PAYLOAD", "criticality_score": 9.0, "last_updated": "2026-07-18T17:04:38.830881+00:00", "maneuver_count": 0, "owner": "N/A"}, "205": {"norad_id": "47945", "name": "UNISAT 7", "tle1": "1 47945U 21022P   26199.20079829  .00007744  00000-0  18820-3 0  9994", "tle2": "2 47945  97.3849 104.4616 0007396 336.2138  23.8766 15.41247238294637", "object_type": "PAYLOAD", "criticality_score": 9.0, "last_updated": "2026-07-18T17:04:38.830881+00:00", "maneuver_count": 0, "owner": "N/A"}, "206": {"norad_id": "47937", "name": "OBJECT F", "tle1": "1 47937U 21022F   26199.31457050  .00004671  00000-0  14656-3 0  9992", "tle2": "2 47937  97.3851  99.9893 0009076 354.5081   5.6061 15.33501808294489", "object_type": "PAYLOAD", "criticality_score": 9.0, "last_updated": "2026-07-18T17:04:38.830881+00:00", "maneuver_count": 0, "owner": "N/A"}, "207": {"norad_id": "47953", "name": "OBJECT X", "tle1": "1 47953U 21022X   26198.62771316  .00107797  00000-0  53109-3 0  9996", "tle2": "2 47953  97.3870 117.7520 0002549 128.0181 232.1318 15.81835826295304", "object_type": "PAYLOAD", "criticality_score": 9.0, "last_updated": "2026-07-18T17:04:38.830881+00:00", "maneuver_count": 0, "owner": "N/A"}, "211": {"norad_id": "48274", "name": "CSS (TIANHE-1)", "tle1": "1 48274U 21035A   26198.52240887  .00001129  00000-0  18813-4 0  9996", "tle2": "2 48274  41.4691 137.7269 0001921 301.5742  58.4908 15.58143309297902", "object_type": "PAYLOAD", "criticality_score": 9.0, "last_updated": "2026-07-18T17:04:38.830881+00:00", "maneuver_count": 0, "owner": "N/A"}, "238": {"norad_id": "46810", "name": "TIANQI-6", "tle1": "1 46810U 20076D   26199.20322513  .00001444  00000-0  95482-4 0  9994", "tle2": "2 46810  34.9975 218.0811 0009517  83.3046 276.8746 15.07361525313265", "object_type": "PAYLOAD", "criticality_score": 9.0, "last_updated": "2026-07-18T17:04:38.830881+00:00", "maneuver_count": 0, "owner": "N/A"}, "250": {"norad_id": "48606", "name": "TYVAK-0130", "tle1": "1 48606U 21041BF  26199.11855071  .00003596  00000-0  14268-3 0  9994", "tle2": "2 48606  52.9946 242.3932 0008415 270.1871  89.8162 15.27963005285119", "object_type": "PAYLOAD", "criticality_score": 9.0, "last_updated": "2026-07-18T17:04:38.830881+00:00", "maneuver_count": 0, "owner": "N/A"}, "251": {"norad_id": "48271", "name": "TYVAK-182A", "tle1": "1 48271U 21034D   26199.15351247  .00001916  00000-0  13416-3 0  9992", "tle2": "2 48271  97.5707 257.5359 0005042 206.9457 153.1510 15.06418862284493", "object_type": "PAYLOAD", "criticality_score": 9.0, "last_updated": "2026-07-18T17:04:38.830881+00:00", "maneuver_count": 0, "owner": "N/A"}, "277": {"norad_id": "48270", "name": "AII-BRAVO", "tle1": "1 48270U 21034C   26199.09988139  .00002712  00000-0  20221-3 0  9997", "tle2": "2 48270  97.5600 253.3062 0006505 151.9137 208.2441 15.03685455284269", "object_type": "PAYLOAD", "criticality_score": 9.0, "last_updated": "2026-07-18T17:04:38.830881+00:00", "maneuver_count": 0, "owner": "N/A"}, "300": {"norad_id": "47883", "name": "STARLINK-2342", "tle1": "1 47883U 21021Z   26199.33335648  .00285309  42745-4  74028-3 0  9995", "tle2": "2 47883  53.1506 350.4874 0009971 303.9588 357.2495 15.94513002  5870", "object_type": "PAYLOAD", "criticality_score": 9.0, "last_updated": "2026-07-18T17:04:38.830881+00:00", "maneuver_count": 0, "owner": "N/A"}, "335": {"norad_id": "46912", "name": "KSM1-A", "tle1": "1 46912U 20081H   26199.30361257  .00003712  00000-0  14303-3 0  9994", "tle2": "2 46912  36.8943 229.4031 0003768 224.5142 135.5305 15.26396013313939", "object_type": "PAYLOAD", "criticality_score": 9.0, "last_updated": "2026-07-18T17:04:38.830881+00:00", "maneuver_count": 0, "owner": "N/A"}, "336": {"norad_id": "46914", "name": "KSM1-B", "tle1": "1 46914U 20081K   26199.27019097  .00003180  00000-0  12867-3 0  9996", "tle2": "2 46914  36.9000 237.2762 0005362 190.7052 169.3583 15.24903782316931", "object_type": "PAYLOAD", "criticality_score": 9.0, "last_updated": "2026-07-18T17:04:38.830881+00:00", "maneuver_count": 0, "owner": "N/A"}, "337": {"norad_id": "46906", "name": "KSM1-C", "tle1": "1 46906U 20081B   26199.28418932  .00003987  00000-0  14966-3 0  9996", "tle2": "2 46906  36.8935 226.8907 0001492 149.0788 211.0049 15.27201356313925", "object_type": "PAYLOAD", "criticality_score": 9.0, "last_updated": "2026-07-18T17:04:38.830881+00:00", "maneuver_count": 0, "owner": "N/A"}, "346": {"norad_id": "46907", "name": "KSM1-D", "tle1": "1 46907U 20081C   26199.26235903  .00003274  00000-0  13153-3 0  9996", "tle2": "2 46907  36.8949 236.6435 0003301 174.4806 185.5980 15.25120403313841", "object_type": "PAYLOAD", "criticality_score": 9.0, "last_updated": "2026-07-18T17:04:38.830881+00:00", "maneuver_count": 0, "owner": "N/A"}, "364": {"norad_id": "47719", "name": "ARKTIKA-M 1", "tle1": "1 47719U 21016A   26195.40739072 -.00000301  00000-0  00000-0 0  9998", "tle2": "2 47719  63.2662  53.6722 7297332 270.0591  14.4994  2.00611590 39330", "object_type": "PAYLOAD", "criticality_score": 9.0, "last_updated": "2026-07-18T17:04:38.830881+00:00", "maneuver_count": 0, "owner": "N/A"}, "416": {"norad_id": "46497", "name": "ICEYE-X6", "tle1": "1 46497U 20068M   26199.24860625  .00001262  00000-0  94491-4 0  9998", "tle2": "2 46497  98.0993 194.4103 0006961   1.7511 358.3737 15.04676292317907", "object_type": "PAYLOAD", "criticality_score": 9.0, "last_updated": "2026-07-18T17:04:38.830881+00:00", "maneuver_count": 0, "owner": "N/A"}, "438": {"norad_id": "48621", "name": "HAIYANG 2D", "tle1": "1 48621U 21043A   26199.30697463 -.00000147  00000-0 -59450-4 0  9997", "tle2": "2 48621  65.9961 227.2225 0011611 265.4916  94.4826 13.83373634260859", "object_type": "PAYLOAD", "criticality_score": 9.0, "last_updated": "2026-07-18T17:04:38.830881+00:00", "maneuver_count": 0, "owner": "N/A"}, "446": {"norad_id": "46913", "name": "R2", "tle1": "1 46913U 20081J   26199.27068659  .00003517  00000-0  13792-3 0  9995", "tle2": "2 46913  36.8964 229.7508 0008403 193.6583 166.3940 15.25842720316739", "object_type": "PAYLOAD", "criticality_score": 9.0, "last_updated": "2026-07-18T17:04:38.830881+00:00", "maneuver_count": 0, "owner": "N/A"}, "448": {"norad_id": "47971", "name": "GLOBAL-9", "tle1": "1 47971U 21023G   26199.05104749  .00012816  00000-0  24893-3 0  9990", "tle2": "2 47971  44.9813  76.9018 0003826 188.7781 171.3043 15.47684743299726", "object_type": "PAYLOAD", "criticality_score": 9.0, "last_updated": "2026-07-18T17:04:38.830881+00:00", "maneuver_count": 0, "owner": "N/A"}, "540": {"norad_id": "47934", "name": "GRUS-1B", "tle1": "1 47934U 21022C   26199.28834105  .00001311  00000-0  11332-3 0  9991", "tle2": "2 47934  97.5333  81.4478 0014487 205.6567 154.3939 14.98783307290551", "object_type": "PAYLOAD", "criticality_score": 9.0, "last_updated": "2026-07-18T17:04:38.830881+00:00", "maneuver_count": 0, "owner": "N/A"}, "568": {"norad_id": "48843", "name": "OBJECT D", "tle1": "1 48843U 21050D   26199.27152644  .00002069  00000-0  89278-4 0  9998", "tle2": "2 48843  97.3325 274.6030 0006670 143.8928 216.2761 15.23612008283695", "object_type": "PAYLOAD", "criticality_score": 9.0, "last_updated": "2026-07-18T17:04:38.830881+00:00", "maneuver_count": 0, "owner": "N/A"}, "617": {"norad_id": "47227", "name": "GONETS M 20", "tle1": "1 47227U 20091A   26199.23877708  .00000112  00000-0  73598-3 0  9992", "tle2": "2 47227  82.5050 283.1357 0022172 112.6551 247.6876 12.42894811254931", "object_type": "PAYLOAD", "criticality_score": 9.0, "last_updated": "2026-07-18T17:04:38.830881+00:00", "maneuver_count": 0, "owner": "N/A"}, "618": {"norad_id": "47228", "name": "GONETS M 21", "tle1": "1 47228U 20091B   26199.29329522  .00000149  00000-0  10010-2 0  9994", "tle2": "2 47228  82.4973 281.7898 0015941 125.6283 234.6284 12.42887942254937", "object_type": "PAYLOAD", "criticality_score": 9.0, "last_updated": "2026-07-18T17:04:38.830881+00:00", "maneuver_count": 0, "owner": "N/A"}, "619": {"norad_id": "47229", "name": "GONETS M 22", "tle1": "1 47229U 20091C   26199.26625350  .00000195  00000-0  13322-2 0  9990", "tle2": "2 47229  82.5030 282.7197 0023051 108.0928 252.2665 12.42894263254885", "object_type": "PAYLOAD", "criticality_score": 9.0, "last_updated": "2026-07-18T17:04:38.830881+00:00", "maneuver_count": 0, "owner": "N/A"}}}