OBJECT_NAME,OBJECT_ID,EPOCH,MEAN_MOTION,ECCENTRICITY,INCLINATION,RA_OF_ASC_NODE,ARG_OF_PERICENTER,MEAN_ANOMALY,EPHEMERIS_TYPE,CLASSIFICATION_TYPE,NORAD_CAT_ID,ELEMENT_SET_NO,REV_AT_EPOCH,BSTAR,MEAN_MOTION_DOT,MEAN_MOTION_DDOT
NORBI,2020-068J,2026-07-18T07:00:13.908960,15.49709974,.00085079,97.8614,218.0285,134.3883,225.8065,0,U,46494,999,32102,.25700453E-3,.14178E-3,0
SALSAT,2020-068K,2026-07-18T00:21:03.770208,15.30195257,.00094957,97.8861,203.9671,182.8082,177.3106,0,U,46495,999,32007,.14176866E-3,.4061E-4,0
ICEYE-X6,2020-068M,2026-07-18T05:57:59.580000,15.04676292,.00069611,98.0993,194.4103,1.7511,358.3737,0,U,46497,999,31790,.94491016E-4,.1262E-4,0
NETSAT-4,2020-068U,2026-07-18T00:44:52.767456,15.44816439,.0005097,97.8605,209.7738,183.3360,176.7854,0,U,46504,999,32053,.21966138E-3,.10198E-3,0
NETSAT-3,2020-068V,2026-07-17T23:54:00.446400,15.43668165,.00041878,97.8658,207.9146,199.0804,161.0287,0,U,46505,999,32043,.23083302E-3,.1031E-3,0
NETSAT-1,2020-068W,2026-07-17T23:16:29.106912,15.35283657,.0002601,97.8757,201.8469,246.1321,113.9649,0,U,46506,999,32002,.20313651E-3,.687E-4,0
NETSAT-2,2020-068X,2026-07-18T06:49:24.881664,15.47248392,.00026033,97.8616,210.0628,195.5474,164.5695,0,U,46507,999,32054,.2584003E-3,.13062E-3,0
TIANQI-6,2020-076D,2026-07-18T04:52:38.651232,15.07361525,.00095173,34.9975,218.0811,83.3046,276.8746,0,U,46810,999,31326,.95481706E-4,.1444E-4,0
KSM1-C,2020-081B,2026-07-18T06:49:13.957248,15.27201356,.00014924,36.8935,226.8907,149.0788,211.0049,0,U,46906,999,31392,.14965846E-3,.3987E-4,0
KSM1-D,2020-081C,2026-07-18T06:17:47.820192,15.25120403,.00033014,36.8949,236.6435,174.4806,185.5980,0,U,46907,999,31384,.13153314E-3,.3274E-4,0
KSM1-A,2020-081H,2026-07-18T07:17:12.126048,15.26396013,.00037682,36.8943,229.4031,224.5142,135.5305,0,U,46912,999,31393,.14302878E-3,.3712E-4,0
R2,2020-081J,2026-07-18T06:29:47.321376,15.25842720,.00084028,36.8964,229.7508,193.6583,166.3940,0,U,46913,999,31673,.13792262E-3,.3517E-4,0
KSM1-B,2020-081K,2026-07-18T06:29:04.499808,15.24903782,.00053617,36.9000,237.2762,190.7052,169.3583,0,U,46914,999,31693,.12866625E-3,.318E-4,0
GONETS-M 20,2020-091A,2026-07-18T05:43:50.339712,12.42894811,.00221716,82.5050,283.1357,112.6551,247.6876,0,U,47227,999,25493,.73597714E-3,.112E-5,0
GONETS-M 21,2020-091B,2026-07-18T07:02:20.707008,12.42887942,.00159407,82.4973,281.7898,125.6283,234.6284,0,U,47228,999,25493,.10010154E-2,.149E-5,0
GONETS-M 22,2020-091C,2026-07-18T06:23:24.302400,12.42894263,.00230508,82.5030,282.7197,108.0928,252.2665,0,U,47229,999,25488,.13321569E-2,.195E-5,0
CUBEL,2021-006AM,2026-07-18T02:55:22.354464,15.42072228,.0007757,97.2307,249.4300,74.3208,285.8895,0,U,47448,999,30452,.25168675E-3,.10682E-3,0
ARKTIKA-M 1,2021-016A,2026-07-14T09:46:38.558208,2.00611590,.7297332,63.2662,53.6722,270.0591,14.4994,0,U,47719,999,3933,0,-.301E-5,0
STARLINK-2342,2021-021Z,2026-07-18T08:00:01.999872,15.94513002,.00099712,53.1506,350.4874,303.9588,357.2495,0,U,47883,999,587,.74028055E-3,.285309E-2,.42745219E-4
GRUS-1B,2021-022C,2026-07-18T06:55:12.666720,14.98783307,.00144866,97.5333,81.4478,205.6567,154.3939,0,U,47934,999,29055,.11331731E-3,.1311E-4,0
2021-022F,2021-022F,2026-07-18T07:32:58.891200,15.33501808,.00090756,97.3851,99.9893,354.5081,5.6061,0,U,47937,999,29448,.14656387E-3,.4671E-4,0
UNISAT-7,2021-022P,2026-07-18T04:49:08.972256,15.41247238,.00073963,97.3849,104.4616,336.2138,23.8766,0,U,47945,999,29463,.18820309E-3,.7744E-4,0
2021-022X,2021-022X,2026-07-17T15:03:54.417024,15.81835826,.00025493,97.3870,117.7520,128.0181,232.1318,0,U,47953,999,29530,.53108523E-3,.107797E-2,0
GLOBAL-9,2021-023G,2026-07-18T01:13:30.503136,15.47684743,.00038259,44.9813,76.9018,188.7781,171.3043,0,U,47971,999,29972,.24892501E-3,.12816E-3,0
AII-BRAVO,2021-034C,2026-07-18T02:23:49.752096,15.03685455,.00065054,97.5600,253.3062,151.9137,208.2441,0,U,48270,999,28426,.20221278E-3,.2712E-4,0
TYVAK-182A,2021-034D,2026-07-18T03:41:03.477408,15.06418862,.00050417,97.5707,257.5359,206.9457,153.1510,0,U,48271,999,28449,.13415661E-3,.1916E-4,0
CSS (TIANHE),2021-035A,2026-07-17T12:32:16.126368,15.58143309,.0001921,41.4691,137.7269,301.5742,58.4908,0,U,48274,999,29790,.18813E-4,.1129E-4,0
TYVAK-0130,2021-041BF,2026-07-18T02:50:42.781344,15.27963005,.00084148,52.9946,242.3932,270.1871,89.8162,0,U,48606,999,28511,.14268186E-3,.3596E-4,0
HAIYANG-2D,2021-043A,2026-07-18T07:22:02.608032,13.83373634,.00116109,65.9961,227.2225,265.4916,94.4826,0,U,48621,999,26085,-.59450134E-4,-.147E-5,0
2021-050D,2021-050D,2026-07-18T06:30:59.884416,15.23612008,.00066702,97.3325,274.6030,143.8928,216.2761,0,U,48843,999,28369,.89278421E-4,.2069E-4,0
